{"type": "FeatureCollection", "features": [ {"type": "Feature", "properties": {"norad_id": 40534, "name": "GPS BIIF-9  (PRN 26)", "group": "gps-ops", "lat": 52.95393771958304, "lon": -50.244032410658356, "alt_km": 20016.05756768712, "timestamp": "2025-12-06T05:40:09.500383+00:00", "meta": {"OBJECT_NAME": "GPS BIIF-9  (PRN 26)", "OBJECT_ID": "2015-013A", "EPOCH": "2025-12-04T14:41:18.695616", "MEAN_MOTION": 2.0056296, "ECCENTRICITY": 0.0106701, "INCLINATION": 53.1991, "RA_OF_ASC_NODE": 212.2269, "ARG_OF_PERICENTER": 38.2819, "MEAN_ANOMALY": 322.5704, "EPHEMERIS_TYPE": 0, "CLASSIFICATION_TYPE": "U", "NORAD_CAT_ID": 40534, "ELEMENT_SET_NO": 999, "REV_AT_EPOCH": 7792, "BSTAR": 0, "MEAN_MOTION_DOT": 7.2e-07, "MEAN_MOTION_DDOT": 0}, "tle": {"line1": "1 40534U 15013A   25338.61202194  .00000072  00000+0  00000+0 0  9999", "line2": "2 40534  53.1991 212.2269 0106701  38.2819 322.5704  2.00562960 77924"}}, "geometry": {"type": "Point", "coordinates": [-50.244032410658356, 52.95393771958304]}}, {"type": "Feature", "properties": {"norad_id": 40730, "name": "GPS BIIF-10 (PRN 08)", "group": "gps-ops", "lat": -19.360745682554743, "lon": -99.6813817434413, "alt_km": 19997.00653403604, "timestamp": "2025-12-06T05:40:09.500395+00:00", "meta": {"OBJECT_NAME": "GPS BIIF-10 (PRN 08)", "OBJECT_ID": "2015-033A", "EPOCH": "2025-12-04T06:35:41.280576", "MEAN_MOTION": 2.0056586, "ECCENTRICITY": 0.01104506, "INCLINATION": 54.1381, "RA_OF_ASC_NODE": 275.1212, "ARG_OF_PERICENTER": 26.6019, "MEAN_ANOMALY": 333.9621, "EPHEMERIS_TYPE": 0, "CLASSIFICATION_TYPE": "U", "NORAD_CAT_ID": 40730, "ELEMENT_SET_NO": 999, "REV_AT_EPOCH": 7608, "BSTAR": 0, "MEAN_MOTION_DOT": -3.2e-07, "MEAN_MOTION_DDOT": 0}, "tle": {"line1": "1 40730U 15033A   25338.27478334 -.00000032  00000+0  00000+0 0  9999", "line2": "2 40730  54.1381 275.1212 0110450  26.6019 333.9621  2.00565860 76083"}}, "geometry": {"type": "Point", "coordinates": [-99.6813817434413, -19.360745682554743]}}, {"type": "Feature", "properties": {"norad_id": 41019, "name": "GPS BIIF-11 (PRN 10)", "group": "gps-ops", "lat": -50.10627404445026, "lon": -13.143171358528178, "alt_km": 20055.241460917838, "timestamp": "2025-12-06T05:40:09.500424+00:00", "meta": {"OBJECT_NAME": "GPS BIIF-11 (PRN 10)", "OBJECT_ID": "2015-062A", "EPOCH": "2025-12-03T20:03:13.853664", "MEAN_MOTION": 2.0056693, "ECCENTRICITY": 0.0110571, "INCLINATION": 56.8259, "RA_OF_ASC_NODE": 38.3468, "ARG_OF_PERICENTER": 229.69, "MEAN_ANOMALY": 129.3913, "EPHEMERIS_TYPE": 0, "CLASSIFICATION_TYPE": "U", "NORAD_CAT_ID": 41019, "ELEMENT_SET_NO": 999, "REV_AT_EPOCH": 7391, "BSTAR": 0, "MEAN_MOTION_DOT": -6.5e-07, "MEAN_MOTION_DDOT": 0}, "tle": {"line1": "1 41019U 15062A   25337.83557701 -.00000065  00000+0  00000+0 0  9995", "line2": "2 41019  56.8259  38.3468 0110571 229.6900 129.3913  2.00566930 73916"}}, "geometry": {"type": "Point", "coordinates": [-13.143171358528178, -50.10627404445026]}}, {"type": "Feature", "properties": {"norad_id": 41328, "name": "GPS BIIF-12 (PRN 32)", "group": "gps-ops", "lat": -41.01469686073234, "lon": -46.048749221961344, "alt_km": 19947.92966270153, "timestamp": "2025-12-06T05:40:09.500437+00:00", "meta": {"OBJECT_NAME": "GPS BIIF-12 (PRN 32)", "OBJECT_ID": "2016-007A", "EPOCH": "2025-12-03T22:01:44.177088", "MEAN_MOTION": 2.00561076, "ECCENTRICITY": 0.0091739, "INCLINATION": 55.4011, "RA_OF_ASC_NODE": 97.2072, "ARG_OF_PERICENTER": 243.359, "MEAN_ANOMALY": 115.6713, "EPHEMERIS_TYPE": 0, "CLASSIFICATION_TYPE": "U", "NORAD_CAT_ID": 41328, "ELEMENT_SET_NO": 999, "REV_AT_EPOCH": 7192, "BSTAR": 0, "MEAN_MOTION_DOT": -7e-08, "MEAN_MOTION_DDOT": 0}, "tle": {"line1": "1 41328U 16007A   25337.91787242 -.00000007  00000+0  00000+0 0  9998", "line2": "2 41328  55.4011  97.2072 0091739 243.3590 115.6713  2.00561076 71928"}}, "geometry": {"type": "Point", "coordinates": [-46.048749221961344, -41.01469686073234]}}, {"type": "Feature", "properties": {"norad_id": 43873, "name": "GPS BIII-1  (PRN 04)", "group": "gps-ops", "lat": 40.89913643892804, "lon": -116.62569449393561, "alt_km": 20139.481179605074, "timestamp": "2025-12-06T05:40:09.500456+00:00", "meta": {"OBJECT_NAME": "GPS BIII-1  (PRN 04)", "OBJECT_ID": "2018-109A", "EPOCH": "2025-12-04T13:52:59.167776", "MEAN_MOTION": 2.00553165, "ECCENTRICITY": 0.0037177, "INCLINATION": 55.5628, "RA_OF_ASC_NODE": 99.8692, "ARG_OF_PERICENTER": 194.6577, "MEAN_ANOMALY": 176.2017, "EPHEMERIS_TYPE": 0, "CLASSIFICATION_TYPE": "U", "NORAD_CAT_ID": 43873, "ELEMENT_SET_NO": 999, "REV_AT_EPOCH": 5117, "BSTAR": 0, "MEAN_MOTION_DOT": -5e-08, "MEAN_MOTION_DDOT": 0}, "tle": {"line1": "1 43873U 18109A   25338.57846259 -.00000005  00000+0  00000+0 0  9995", "line2": "2 43873  55.5628  99.8692 0037177 194.6577 176.2017  2.00553165 51170"}}, "geometry": {"type": "Point", "coordinates": [-116.62569449393561, 40.89913643892804]}}, {"type": "Feature", "properties": {"norad_id": 44506, "name": "GPS BIII-2  (PRN 18)", "group": "gps-ops", "lat": 19.953421732974856, "lon": -6.857395771671265, "alt_km": 20332.156203572144, "timestamp": "2025-12-06T05:40:09.500468+00:00", "meta": {"OBJECT_NAME": "GPS BIII-2  (PRN 18)", "OBJECT_ID": "2019-056A", "EPOCH": "2025-12-02T10:49:28.764768", "MEAN_MOTION": 2.00565569, "ECCENTRICITY": 0.00578163, "INCLINATION": 55.7251, "RA_OF_ASC_NODE": 338.9617, "ARG_OF_PERICENTER": 198.402, "MEAN_ANOMALY": 332.9603, "EPHEMERIS_TYPE": 0, "CLASSIFICATION_TYPE": "U", "NORAD_CAT_ID": 44506, "ELEMENT_SET_NO": 999, "REV_AT_EPOCH": 4612, "BSTAR": 0, "MEAN_MOTION_DOT": -6.1e-07, "MEAN_MOTION_DDOT": 0}, "tle": {"line1": "1 44506U 19056A   25336.45102737 -.00000061  00000+0  00000+0 0  9994", "line2": "2 44506  55.7251 338.9617 0057816 198.4020 332.9603  2.00565569 46121"}}, "geometry": {"type": "Point", "coordinates": [-6.857395771671265, 19.953421732974856]}}, {"type": "Feature", "properties": {"norad_id": 45854, "name": "GPS BIII-3  (PRN 23)", "group": "gps-ops", "lat": -25.31576689012016, "lon": 18.249089841287347, "alt_km": 20279.357693578328, "timestamp": "2025-12-06T05:40:09.500480+00:00", "meta": {"OBJECT_NAME": "GPS BIII-3  (PRN 23)", "OBJECT_ID": "2020-041A", "EPOCH": "2025-12-05T00:44:21.679872", "MEAN_MOTION": 2.00561656, "ECCENTRICITY": 0.00602963, "INCLINATION": 56.5415, "RA_OF_ASC_NODE": 36.4861, "ARG_OF_PERICENTER": 203.0901, "MEAN_ANOMALY": 335.2174, "EPHEMERIS_TYPE": 0, "CLASSIFICATION_TYPE": "U", "NORAD_CAT_ID": 45854, "ELEMENT_SET_NO": 999, "REV_AT_EPOCH": 4014, "BSTAR": 0, "MEAN_MOTION_DOT": -6.7e-07, "MEAN_MOTION_DDOT": 0}, "tle": {"line1": "1 45854U 20041A   25339.03080648 -.00000067  00000+0  00000+0 0  9996", "line2": "2 45854  56.5415  36.4861 0060296 203.0901 335.2174  2.00561656 40145"}}, "geometry": {"type": "Point", "coordinates": [18.249089841287347, -25.31576689012016]}}, {"type": "Feature", "properties": {"norad_id": 46826, "name": "GPS BIII-4  (PRN 14)", "group": "gps-ops", "lat": -44.42312305550827, "lon": 173.25614413863258, "alt_km": 20203.71135145915, "timestamp": "2025-12-06T05:40:09.500492+00:00", "meta": {"OBJECT_NAME": "GPS BIII-4  (PRN 14)", "OBJECT_ID": "2020-078A", "EPOCH": "2025-11-12T03:01:29.190720", "MEAN_MOTION": 2.00567032, "ECCENTRICITY": 0.0063911, "INCLINATION": 54.0223, "RA_OF_ASC_NODE": 219.5836, "ARG_OF_PERICENTER": 203.4986, "MEAN_ANOMALY": 326.7754, "EPHEMERIS_TYPE": 0, "CLASSIFICATION_TYPE": "U", "NORAD_CAT_ID": 46826, "ELEMENT_SET_NO": 999, "REV_AT_EPOCH": 3715, "BSTAR": 0, "MEAN_MOTION_DOT": -3.4e-07, "MEAN_MOTION_DDOT": 0}, "tle": {"line1": "1 46826U 20078A   25316.12603230 -.00000034  00000+0  00000+0 0  9993", "line2": "2 46826  54.0223 219.5836 0063911 203.4986 326.7754  2.00567032 37155"}}, "geometry": {"type": "Point", "coordinates": [173.25614413863258, -44.42312305550827]}}, {"type": "Feature", "properties": {"norad_id": 48859, "name": "GPS BIII-5  (PRN 11)", "group": "gps-ops", "lat": 42.34842064633261, "lon": 120.97400715611028, "alt_km": 20198.37614790866, "timestamp": "2025-12-06T05:40:09.500503+00:00", "meta": {"OBJECT_NAME": "GPS BIII-5  (PRN 11)", "OBJECT_ID": "2021-054A", "EPOCH": "2025-11-30T17:12:22.002912", "MEAN_MOTION": 2.00553932, "ECCENTRICITY": 0.0024653, "INCLINATION": 55.2606, "RA_OF_ASC_NODE": 340.4377, "ARG_OF_PERICENTER": 232.9477, "MEAN_ANOMALY": 227.2059, "EPHEMERIS_TYPE": 0, "CLASSIFICATION_TYPE": "U", "NORAD_CAT_ID": 48859, "ELEMENT_SET_NO": 999, "REV_AT_EPOCH": 3277, "BSTAR": 0, "MEAN_MOTION_DOT": -5.5e-07, "MEAN_MOTION_DDOT": 0}, "tle": {"line1": "1 48859U 21054A   25334.71692133 -.00000055  00000+0  00000+0 0  9994", "line2": "2 48859  55.2606 340.4377 0024653 232.9477 227.2059  2.00553932 32777"}}, "geometry": {"type": "Point", "coordinates": [120.97400715611028, 42.34842064633261]}}, {"type": "Feature", "properties": {"norad_id": 55268, "name": "GPS BIII-6  (PRN 28)", "group": "gps-ops", "lat": 10.192708076677906, "lon": -31.119028828658553, "alt_km": 20191.263766527263, "timestamp": "2025-12-06T05:40:09.500515+00:00", "meta": {"OBJECT_NAME": "GPS BIII-6  (PRN 28)", "OBJECT_ID": "2023-009A", "EPOCH": "2025-12-03T18:12:38.807136", "MEAN_MOTION": 2.00556312, "ECCENTRICITY": 0.00036355, "INCLINATION": 55.1062, "RA_OF_ASC_NODE": 156.1984, "ARG_OF_PERICENTER": 358.5946, "MEAN_ANOMALY": 180.1179, "EPHEMERIS_TYPE": 0, "CLASSIFICATION_TYPE": "U", "NORAD_CAT_ID": 55268, "ELEMENT_SET_NO": 999, "REV_AT_EPOCH": 2132, "BSTAR": 0, "MEAN_MOTION_DOT": 9.9e-07, "MEAN_MOTION_DDOT": 0}, "tle": {"line1": "1 55268U 23009A   25337.75878249  .00000099  00000+0  00000+0 0  9996", "line2": "2 55268  55.1062 156.1984 0003635 358.5946 180.1179  2.00556312 21327"}}, "geometry": {"type": "Point", "coordinates": [-31.119028828658553, 10.192708076677906]}}]}